FLOCK 4G-2              
1 62661U 25009BE  26068.66207492  .00013752  00000+0  51068-3 0  9995
2 62661  97.4044 151.2221 0003181 329.2677  30.8376 15.27675260121321
STARLINK-34182          
1 64013U 25101V   26068.17831815  .00058909  00000+0  21296-2 0  9991
2 64013  43.0053 357.6816 0002042 294.4039  65.6600 15.27635276 47015
